IRIDIUM 100             
1 42956U 17061B   26167.60660472  .00000057  00000+0  13422-4 0  9991
2 42956  86.3967  25.4295 0002155  87.1013 273.0430 14.34216955454694
IRIDIUM 122             
1 42957U 17061C   26167.57489259  .00000049  00000+0  10302-4 0  9995
2 42957  86.3967  25.4429 0002160  83.6517 276.4925 14.34217812454699
IRIDIUM 129             
1 42958U 17061D   26167.60026342 -.00000031  00000+0 -17965-4 0  9995
2 42958  86.3965  25.4992 0002296  85.2709 274.8749 14.34217397454711
IRIDIUM 119             
1 42959U 17061E   26167.56854994  .00000028  00000+0  30345-5 0  9995
2 42959  86.3968  25.5084 0002221  84.0288 276.1161 14.34217784454729
IRIDIUM 107             
1 42960U 17061F   26167.58757724  .00000147  00000+0  45357-4 0  9992
2 42960  86.3969  25.5218 0001944  82.0681 278.0736 14.34216761454731
IRIDIUM 132             
1 42961U 17061G   26167.59392060  .00000053  00000+0  12036-4 0  9996
2 42961  86.3968  25.4986 0002163  85.0462 275.0981 14.34217630454731
IRIDIUM 136             
1 42962U 17061H   26167.55587373  .00000190  00000+0  60704-4 0  9993
2 42962  86.3969  25.5212 0002174  88.3523 271.7922 14.34219312454740
IRIDIUM 139             
1 42963U 17061J   26167.56220697  .00000053  00000+0  11916-4 0  9997
2 42963  86.3972  25.5805 0002076  87.9067 272.2366 14.34217961454759
IRIDIUM 125             
1 42964U 17061K   26167.54952805  .00000131  00000+0  39596-4 0  9990
2 42964  86.3972  25.6468 0002203  73.0131 287.1307 14.34213986454760
QZS-4 (MICHIBIKI-4)     
1 42965U 17062A   26167.35401075 -.00000348  00000+0  00000+0 0  9993
2 42965  40.1083 343.4922 0745175 271.7618 273.8478  1.00250450 31798
SES-11 (ECHOSTAR 105)   
1 42967U 17063A   26167.56068862 -.00000091  00000+0  00000+0 0  9997
2 42967   0.0168 337.4237 0002691  93.0584 291.2456  1.00270643 31715
SENTINEL-5P             
1 42969U 17064A   26167.56750690  .00000030  00000+0  35330-4 0  9998
2 42969  98.7925 109.7031 0000963  85.2387 274.8899 14.19518841449471
KOREASAT 5A             
1 42984U 17067A   26167.59418937 -.00000360  00000+0  00000+0 0  9994
2 42984   0.0144  30.0717 0000579  64.6884 137.1621  1.00271007 31523
COSMOS 2523             
1 42986U 17037E   26167.59879384  .00001820  00000+0  16298-3 0  9991
2 42986  97.4981 180.7220 0065173 230.8854 128.6562 14.95432700468879
SKYSAT-C11              
1 42987U 17068A   26167.41496620  .00023062  00000+0  31054-3 0  9994
2 42987  97.4351 316.2117 0000652  85.8238 274.3092 15.57859742483127
SKYSAT-C10              
1 42988U 17068B   26167.37949327  .00007605  00000+0  22905-3 0  9997
2 42988  97.4508 304.2182 0001114  96.2751 263.8619 15.34627153482234
SKYSAT-C9               
1 42989U 17068C   26167.33019341  .00011332  00000+0  27153-3 0  9990
2 42989  97.4429 305.0950 0009388 135.6154 224.5847 15.41543793482620
SKYSAT-C8               
1 42990U 17068D   26167.41718050  .00008787  00000+0  24534-3 0  9994
2 42990  97.4526 304.0531 0001465  95.7997 264.3415 15.36963915482194
SKYSAT-C7               
1 42991U 17068E   26167.34566659  .00008911  00000+0  24900-3 0  9999
2 42991  97.4536 304.9700 0007203 108.9699 251.2326 15.36912525482248
SKYSAT-C6               
1 42992U 17068F   26167.62498520  .00007513  00000+0  22931-3 0  9991
2 42992  97.4572 305.2249 0004392 139.0315 221.1258 15.34202257482238
BEIDOU-3 M1             
1 43001U 17069A   26167.05913703 -.00000050  00000+0  00000+0 0  9995
2 43001  56.6914  63.1220 0010416 325.8468  34.1241  1.86230800 58582
BEIDOU-3 M2             
1 43002U 17069B   26166.99787615 -.00000050  00000+0  00000+0 0  9999
2 43002  56.6897  63.1605 0009202 351.0266   8.9945  1.86230738 58577
MOHAMMED VI-A           
1 43005U 17070A   26167.60122766  .00000501  00000+0  78231-4 0  9999
2 43005  97.9564 239.9403 0001381  71.6129 288.5231 14.77068851463899
FENGYUN 3D              
1 43010U 17072A   26167.58356204 -.00000342  00000+0 -13968-3 0  9990
2 43010  99.0121 141.9950 0002594  63.5618 296.5823 14.19737855444906
HEAD-1                  
1 43011U 17072B   26167.60898563  .00000250  00000+0  11772-3 0  9990
2 43011  98.9540 186.1006 0010385 149.6794 210.4989 14.28797743447274
NOAA 20 (JPSS-1)        
1 43013U 17073A   26167.57841601  .00000057  00000+0  48098-4 0  9997
2 43013  98.7771 107.0465 0000290  92.0503 268.0706 14.19511638444386
MAKERSAT 0              
1 43016U 17073D   26167.39618155  .00014722  00000+0  40127-3 0  9994
2 43016  97.4625  49.9092 0105127 275.8487  83.0779 15.32078089466349
RADFXSAT (FOX-1B)       
1 43017U 17073E   26167.61266245  .00006326  00000+0  27762-3 0  9990
2 43017  97.4701  34.8391 0149639 331.2657  28.0388 15.12711269465304
JILIN-1 04              
1 43022U 17074A   26167.56722301  .00010409  00000+0  24271-3 0  9990
2 43022  97.4865 277.1626 0004131 180.6307 179.4935 15.42428657474172
JILIN-1 05              
1 43023U 17074B   26167.59929282  .00006981  00000+0  21553-3 0  9991
2 43023  97.4870 273.7451 0004316 216.5406 143.5543 15.33868931473912
